start=new Date('2022-08-21T00:00:00.000Z').valueOf();
sats=[{"MEAN_MOTION":"15.06417710","OBJECT_ID":"2021-027E","SEMIMAJOR_AXIS":"6925.294","RCS_SIZE":"LARGE","NORAD_CAT_ID":"48096","OBJECT_TYPE":"PAYLOAD","EPHEMERIS_TYPE":"0","REF_FRAME":"TEME","MEAN_MOTION_DDOT":"0.0000000000000","REV_AT_EPOCH":"7693","MEAN_ANOMALY":"285.1395","CENTER_NAME":"EARTH","CLASSIFICATION_TYPE":"U","RA_OF_ASC_NODE":"233.8827","COUNTRY_CODE":"US","GP_ID":"210620299","TIME_SYSTEM":"UTC","OBJECT_NAME":"STARLINK-2417","MEAN_MOTION_DOT":"0.00004446","MEAN_ELEMENT_THEORY":"SGP4","FILE":"3541760","DECAY_DATE":null,"LAUNCH_DATE":"2021-04-07","EPOCH":"2022-08-20T17:35:34.452096","PERIOD":"95.591","ARG_OF_PERICENTER":"74.9746","ELEMENT_SET_NO":"999","TLE_LINE1":"1 48096U 21027E   22232.73303764  .00004446  00000-0  31703-3 0  9998","APOAPSIS":"548.114","SITE":"AFETR","ECCENTRICITY":"0.00013780","PERIAPSIS":"546.205","BSTAR":"0.00031703000000","TLE_LINE2":"2 48096  53.0523 233.8827 0001378  74.9746 285.1395 15.06417710 76936","INCLINATION":"53.0523"},{"INCLINATION":"53.0542","TLE_LINE2":"2 48097  53.0542 214.2839 0001391  76.1693 283.9451 15.06387822 77204","BSTAR":"-0.00004603400000","PERIAPSIS":"546.288","ECCENTRICITY":"0.00013910","APOAPSIS":"548.214","SITE":"AFETR","LAUNCH_DATE":"2021-04-07","PERIOD":"95.593","ARG_OF_PERICENTER":"76.1693","EPOCH":"2022-08-20T15:30:49.970880","ELEMENT_SET_NO":"999","TLE_LINE1":"1 48097U 21027F   22232.64641170 -.00000967  00000-0 -46034-4 0  9995","MEAN_ELEMENT_THEORY":"SGP4","MEAN_MOTION_DOT":"-0.00000967","FILE":"3541760","DECAY_DATE":null,"GP_ID":"210619075","TIME_SYSTEM":"UTC","OBJECT_NAME":"STARLINK-2418","CLASSIFICATION_TYPE":"U","COUNTRY_CODE":"US","RA_OF_ASC_NODE":"214.2839","REV_AT_EPOCH":"7720","MEAN_ANOMALY":"283.9451","CENTER_NAME":"EARTH","MEAN_MOTION_DDOT":"0.0000000000000","EPHEMERIS_TYPE":"0","REF_FRAME":"TEME","RCS_SIZE":"LARGE","NORAD_CAT_ID":"48097","OBJECT_TYPE":"PAYLOAD","OBJECT_ID":"2021-027F","SEMIMAJOR_AXIS":"6925.386","MEAN_MOTION":"15.06387822"},{"RA_OF_ASC_NODE":"224.0890","COUNTRY_CODE":"US","CLASSIFICATION_TYPE":"U","MEAN_MOTION_DDOT":"0.0000000000000","REV_AT_EPOCH":"7706","CENTER_NAME":"EARTH","MEAN_ANOMALY":"292.1357","RCS_SIZE":"LARGE","OBJECT_TYPE":"PAYLOAD","NORAD_CAT_ID":"48098","REF_FRAME":"TEME","EPHEMERIS_TYPE":"0","MEAN_MOTION":"15.06389629","OBJECT_ID":"2021-027G","SEMIMAJOR_AXIS":"6925.380","BSTAR":"-0.00007237600000","TLE_LINE2":"2 48098  53.0524 224.0890 0001610  67.9803 292.1357 15.06389629 77064","INCLINATION":"53.0524","ECCENTRICITY":"0.00016100","PERIAPSIS":"546.130","PERIOD":"95.593","ARG_OF_PERICENTER":"67.9803","EPOCH":"2022-08-20T16:33:11.922048","LAUNCH_DATE":"2021-04-07","TLE_LINE1":"1 48098U 21027G   22232.68972132 -.00001359  00000-0 -72376-4 0  9999","ELEMENT_SET_NO":"999","APOAPSIS":"548.360","SITE":"AFETR","TIME_SYSTEM":"UTC","GP_ID":"210618826","OBJECT_NAME":"STARLINK-2421","DECAY_DATE":null,"FILE":"3541760","MEAN_ELEMENT_THEORY":"SGP4","MEAN_MOTION_DOT":"-0.00001359"},{"SEMIMAJOR_AXIS":"6925.349","OBJECT_ID":"2021-027H","MEAN_MOTION":"15.06399998","EPHEMERIS_TYPE":"0","REF_FRAME":"TEME","NORAD_CAT_ID":"48099","OBJECT_TYPE":"PAYLOAD","RCS_SIZE":"LARGE","MEAN_ANOMALY":"289.3857","CENTER_NAME":"EARTH","REV_AT_EPOCH":"7686","MEAN_MOTION_DDOT":"0.0000000000000","CLASSIFICATION_TYPE":"U","COUNTRY_CODE":"US","RA_OF_ASC_NODE":"235.9267","MEAN_ELEMENT_THEORY":"SGP4","MEAN_MOTION_DOT":"0.00001875","DECAY_DATE":null,"FILE":"3541419","OBJECT_NAME":"STARLINK-2428","TIME_SYSTEM":"UTC","GP_ID":"210585264","SITE":"AFETR","APOAPSIS":"548.232","ELEMENT_SET_NO":"999","TLE_LINE1":"1 48099U 21027H   22232.27965157  .00001875  00000-0  14475-3 0  9990","LAUNCH_DATE":"2021-04-07","EPOCH":"2022-08-20T06:42:41.895648","PERIOD":"95.592","ARG_OF_PERICENTER":"70.7291","PERIAPSIS":"546.196","ECCENTRICITY":"0.00014700","INCLINATION":"53.0538","TLE_LINE2":"2 48099  53.0538 235.9267 0001470  70.7291 289.3857 15.06399998 76866","BSTAR":"0.00014475000000"},{"INCLINATION":"53.0531","TLE_LINE2":"2 48100  53.0531 215.5059 0001534  72.1571 287.9585 15.06392634 77169","BSTAR":"-0.00007835600000","PERIAPSIS":"546.174","ECCENTRICITY":"0.00015340","SITE":"AFETR","APOAPSIS":"548.298","TLE_LINE1":"1 48100U 21027J   22232.37365018 -.00001448  00000-0 -78356-4 0  9991","ELEMENT_SET_NO":"999","PERIOD":"95.593","EPOCH":"2022-08-20T08:58:03.375552","ARG_OF_PERICENTER":"72.1571","LAUNCH_DATE":"2021-04-07","DECAY_DATE":null,"FILE":"3541419","MEAN_MOTION_DOT":"-0.00001448","MEAN_ELEMENT_THEORY":"SGP4","OBJECT_NAME":"STARLINK-2430","GP_ID":"210585514","TIME_SYSTEM":"UTC","RA_OF_ASC_NODE":"215.5059","COUNTRY_CODE":"US","CLASSIFICATION_TYPE":"U","CENTER_NAME":"EARTH","MEAN_ANOMALY":"287.9585","REV_AT_EPOCH":"7716","MEAN_MOTION_DDOT":"0.0000000000000","REF_FRAME":"TEME","EPHEMERIS_TYPE":"0","OBJECT_TYPE":"PAYLOAD","NORAD_CAT_ID":"48100","RCS_SIZE":"LARGE","SEMIMAJOR_AXIS":"6925.371","OBJECT_ID":"2021-027J","MEAN_MOTION":"15.06392634"},{"GP_ID":"210586765","TIME_SYSTEM":"UTC","OBJECT_NAME":"STARLINK-2436","DECAY_DATE":null,"FILE":"3541419","MEAN_ELEMENT_THEORY":"SGP4","MEAN_MOTION_DOT":"0.00009666","ARG_OF_PERICENTER":"74.0691","PERIOD":"95.595","EPOCH":"2022-08-20T10:09:42.306048","LAUNCH_DATE":"2021-04-07","TLE_LINE1":"1 48101U 21027K   22232.42340632  .00009666  00000-0  66782-3 0  9990","ELEMENT_SET_NO":"999","APOAPSIS":"548.554","SITE":"AFETR","ECCENTRICITY":"0.00017110","PERIAPSIS":"546.184","TLE_LINE2":"2 48101  53.0531 225.2858 0001711  74.0691 286.0486 15.06349429 77036","BSTAR":"0.00066782000000","INCLINATION":"53.0531","MEAN_MOTION":"15.06349429","OBJECT_ID":"2021-027K","SEMIMAJOR_AXIS":"6925.504","RCS_SIZE":"LARGE","OBJECT_TYPE":"PAYLOAD","NORAD_CAT_ID":"48101","REF_FRAME":"TEME","EPHEMERIS_TYPE":"0","MEAN_MOTION_DDOT":"0.0000000000000","REV_AT_EPOCH":"7703","CENTER_NAME":"EARTH","MEAN_ANOMALY":"286.0486","COUNTRY_CODE":"US","RA_OF_ASC_NODE":"225.2858","CLASSIFICATION_TYPE":"U"},{"INCLINATION":"53.0510","BSTAR":"-0.00005740600000","TLE_LINE2":"2 48102  53.0510 214.2027 0001429  77.0196 283.0952 15.06390955 77203","PERIAPSIS":"546.252","ECCENTRICITY":"0.00014290","SITE":"AFETR","APOAPSIS":"548.231","ELEMENT_SET_NO":"999","TLE_LINE1":"1 48102U 21027L   22232.66483876 -.00001136  00000-0 -57406-4 0  9995","LAUNCH_DATE":"2021-04-07","EPOCH":"2022-08-20T15:57:22.068864","PERIOD":"95.593","ARG_OF_PERICENTER":"77.0196","MEAN_ELEMENT_THEORY":"SGP4","MEAN_MOTION_DOT":"-0.00001136","FILE":"3541760","DECAY_DATE":null,"OBJECT_NAME":"STARLINK-2437","GP_ID":"210619326","TIME_SYSTEM":"UTC","CLASSIFICATION_TYPE":"U","RA_OF_ASC_NODE":"214.2027","COUNTRY_CODE":"US","MEAN_ANOMALY":"283.0952","CENTER_NAME":"EARTH","REV_AT_EPOCH":"7720","MEAN_MOTION_DDOT":"0.0000000000000","EPHEMERIS_TYPE":"0","REF_FRAME":"TEME","NORAD_CAT_ID":"48102","OBJECT_TYPE":"PAYLOAD","RCS_SIZE":"LARGE","SEMIMAJOR_AXIS":"6925.376","OBJECT_ID":"2021-027L","MEAN_MOTION":"15.06390955"},{"MEAN_MOTION":"15.06391319","OBJECT_ID":"2021-027M","SEMIMAJOR_AXIS":"6925.375","RCS_SIZE":"LARGE","OBJECT_TYPE":"PAYLOAD","NORAD_CAT_ID":"48103","REF_FRAME":"TEME","EPHEMERIS_TYPE":"0","MEAN_MOTION_DDOT":"0.0000000000000","REV_AT_EPOCH":"7720","CENTER_NAME":"EARTH","MEAN_ANOMALY":"301.4491","RA_OF_ASC_NODE":"214.1697","COUNTRY_CODE":"US","CLASSIFICATION_TYPE":"U","GP_ID":"210620074","TIME_SYSTEM":"UTC","OBJECT_NAME":"STARLINK-2438","DECAY_DATE":null,"FILE":"3541760","MEAN_MOTION_DOT":"0.00000197","MEAN_ELEMENT_THEORY":"SGP4","PERIOD":"95.593","ARG_OF_PERICENTER":"58.6661","EPOCH":"2022-08-20T16:11:56.173344","LAUNCH_DATE":"2021-04-07","TLE_LINE1":"1 48103U 21027M   22232.67495571  .00000197  00000-0  32121-4 0  9993","ELEMENT_SET_NO":"999","APOAPSIS":"548.391","SITE":"AFETR","ECCENTRICITY":"0.00016620","PERIAPSIS":"546.089","BSTAR":"0.00003212100000","TLE_LINE2":"2 48103  53.0548 214.1697 0001662  58.6661 301.4491 15.06391319 77206","INCLINATION":"53.0548"},{"ECCENTRICITY":"0.00013740","PERIAPSIS":"546.276","TLE_LINE2":"2 48104  53.0530 219.1093 0001374  79.3589 280.7555 15.06395585 77144","BSTAR":"0.00002200800000","INCLINATION":"53.0530","OBJECT_NAME":"STARLINK-2439","TIME_SYSTEM":"UTC","GP_ID":"210620300","MEAN_MOTION_DOT":"0.00000046","MEAN_ELEMENT_THEORY":"SGP4","FILE":"3541760","DECAY_DATE":null,"ELEMENT_SET_NO":"999","TLE_LINE1":"1 48104U 21027N   22232.68464542  .00000046  00000-0  22008-4 0  9995","LAUNCH_DATE":"2021-04-07","EPOCH":"2022-08-20T16:25:53.364288","PERIOD":"95.592","ARG_OF_PERICENTER":"79.3589","SITE":"AFETR","APOAPSIS":"548.179","MEAN_MOTION_DDOT":"0.0000000000000","MEAN_ANOMALY":"280.7555","CENTER_NAME":"EARTH","REV_AT_EPOCH":"7714","CLASSIFICATION_TYPE":"U","COUNTRY_CODE":"US","RA_OF_ASC_NODE":"219.1093","MEAN_MOTION":"15.06395585","SEMIMAJOR_AXIS":"6925.362","OBJECT_ID":"2021-027N","NORAD_CAT_ID":"48104","OBJECT_TYPE":"PAYLOAD","RCS_SIZE":"LARGE","EPHEMERIS_TYPE":"0","REF_FRAME":"TEME"},{"MEAN_ANOMALY":"287.3687","CENTER_NAME":"EARTH","REV_AT_EPOCH":"7788","MEAN_MOTION_DDOT":"0.0000000000000","CLASSIFICATION_TYPE":"U","COUNTRY_CODE":"US","RA_OF_ASC_NODE":"164.8262","SEMIMAJOR_AXIS":"6925.374","OBJECT_ID":"2021-027P","MEAN_MOTION":"15.06391831","EPHEMERIS_TYPE":"0","REF_FRAME":"TEME","NORAD_CAT_ID":"48105","OBJECT_TYPE":"PAYLOAD","RCS_SIZE":"LARGE","PERIAPSIS":"546.139","ECCENTRICITY":"0.00015880","INCLINATION":"53.0556","BSTAR":"-0.00004613200000","TLE_LINE2":"2 48105  53.0556 164.8262 0001588  72.7476 287.3687 15.06391831 77886","MEAN_ELEMENT_THEORY":"SGP4","MEAN_MOTION_DOT":"-0.00000968","FILE":"3541419","DECAY_DATE":null,"OBJECT_NAME":"STARLINK-2440","GP_ID":"210586266","TIME_SYSTEM":"UTC","SITE":"AFETR","APOAPSIS":"548.338","ELEMENT_SET_NO":"999","TLE_LINE1":"1 48105U 21027P   22232.52569311 -.00000968  00000-0 -46132-4 0  9998","LAUNCH_DATE":"2021-04-07","ARG_OF_PERICENTER":"72.7476","PERIOD":"95.593","EPOCH":"2022-08-20T12:36:59.884704"}];
